{
    "links": {
        "self": "http://www.neowsapp.com/rest/v1/neo/3843648?api_key=iIulBulltgU6a56xZRHN4H3l9WmuAYTsLGpBGhQ2"
    },
    "id": "3843648",
    "neo_reference_id": "3843648",
    "name": "(2019 QX4)",
    "designation": "2019 QX4",
    "nasa_jpl_url": "http://ssd.jpl.nasa.gov/sbdb.cgi?sstr=3843648",
    "absolute_magnitude_h": 25.0,
    "estimated_diameter": {
        "kilometers": {
            "estimated_diameter_min": 0.02658,
            "estimated_diameter_max": 0.0594346868
        },
        "meters": {
            "estimated_diameter_min": 26.58,
            "estimated_diameter_max": 59.4346868419
        },
        "miles": {
            "estimated_diameter_min": 0.0165160412,
            "estimated_diameter_max": 0.0369309908
        },
        "feet": {
            "estimated_diameter_min": 87.2047272,
            "estimated_diameter_max": 194.9956979785
        }
    },
    "is_potentially_hazardous_asteroid": false,
    "close_approach_data": [
        {
            "close_approach_date": "2019-08-20",
            "close_approach_date_full": "2019-Aug-20 14:57",
            "epoch_date_close_approach": 1566313020000,
            "relative_velocity": {
                "kilometers_per_second": "5.6530463131",
                "kilometers_per_hour": "20350.9667273082",
                "miles_per_hour": "12645.2992978655"
            },
            "miss_distance": {
                "astronomical": "0.1222042583",
                "lunar": "47.5374564787",
                "kilometers": "18281496.746609821",
                "miles": "11359595.3269086898"
            },
            "orbiting_body": "Earth"
        }
    ],
    "orbital_data": {
        "orbit_id": "1",
        "orbit_determination_date": "2019-08-29 14:12:04",
        "first_observation_date": "2019-08-27",
        "last_observation_date": "2019-08-29",
        "data_arc_in_days": 2,
        "observations_used": 47,
        "orbit_uncertainty": "9",
        "minimum_orbit_intersection": ".103391",
        "jupiter_tisserand_invariant": "3.538",
        "epoch_osculation": "2458724.5",
        "eccentricity": ".4828956909722594",
        "semi_major_axis": "2.159660460542158",
        "inclination": ".7468734086762974",
        "ascending_node_longitude": "323.9613722818324",
        "orbital_period": "1159.248767125003",
        "perihelion_distance": "1.116769730183185",
        "perihelion_argument": "356.364605912006",
        "aphelion_distance": "3.202551190901132",
        "perihelion_time": "2458712.782616585152",
        "mean_anomaly": "3.638785866304417",
        "mean_motion": ".3105459416556627",
        "equinox": "J2000",
        "orbit_class": {
            "orbit_class_type": "AMO",
            "orbit_class_description": "Near-Earth asteroid orbits similar to that of 1221 Amor",
            "orbit_class_range": "1.017 AU < q (perihelion) < 1.3 AU"
        }
    },
    "is_sentry_object": false
}